QIANFAN-60              
1 62790U 25016F   25210.52102197  .00000152  00000+0  21615-3 0  9990
2 62790  88.9831 117.1577 0016719  24.3988 335.7951 13.50967373 28838
QIANFAN-61              
1 62791U 25016G   25210.53356516  .00000131  00000+0  18362-3 0  9990
2 62791  88.9899 117.2216 0016117  23.4429 336.7453 13.50956812 28852
QIANFAN-62              
1 62792U 25016H   25210.53750035  .00000147  00000+0  20823-3 0  9997
2 62792  88.9845 117.1633 0017525  23.2090 336.9848 13.50955761 28843
QIANFAN-63              
1 62793U 25016J   25210.54984887  .00000157  00000+0  22470-3 0  9994
2 62793  88.9852 117.1015 0017455  27.3973 332.8095 13.50952872 28886
QIANFAN-64              
1 62794U 25016K   25210.54159000  .00000147  00000+0  20888-3 0  9996
2 62794  88.9838 117.1007 0015122  22.5377 337.6435 13.50961484 28875
QIANFAN-65              
1 62795U 25016L   25210.52527750  .00000141  00000+0  19925-3 0  9990
2 62795  88.9835 117.1304 0015363  24.1596 336.0272 13.50959413 28850
QIANFAN-66              
1 62796U 25016M   25210.55393241  .00000161  00000+0  23001-3 0  9992
2 62796  88.9854 117.0709 0016343  19.5488 340.6287 13.50961710 28903
QIANFAN-67              
1 62797U 25016N   25210.55819487  .00000146  00000+0  20711-3 0  9996
2 62797  88.9844 117.1094 0016526  25.8216 334.3756 13.50963212 28879
QIANFAN-68              
1 62798U 25016P   25210.56223854  .00000143  00000+0  20280-3 0  9993
2 62798  88.9848 117.1523 0017103  23.9877 336.2067 13.50960636 28856
QIANFAN-69              
1 62799U 25016Q   25210.56628363  .00000135  00000+0  19096-3 0  9992
2 62799  88.9826 117.0476 0017295  24.8885 335.3097 13.50961495 28891
QIANFAN-70              
1 62800U 25016R   25210.50876564  .00000151  00000+0  21509-3 0  9997
2 62800  88.9848 117.1630 0016580  16.3721 343.7962 13.50960000 28842
QIANFAN-71              
1 62801U 25016S   25210.50473286  .00000153  00000+0  21836-3 0  9997
2 62801  88.9842 117.1513 0017314  28.2808 331.9280 13.50959871 28847
QIANFAN-72              
1 62802U 25016T   25210.50046236  .00000147  00000+0  20955-3 0  9993
2 62802  88.9832 117.1736 0020885  33.2916 326.9544 13.50961528 28835
QIANFAN-73              
1 63159U 25046A   25210.62222139  .00000151  00000+0  21514-3 0  9990
2 63159  88.9857 334.0467 0016180 151.9095 208.2933 13.50957723 29037
QIANFAN-74              
1 63160U 25046B   25210.53176406  .00000169  00000+0  24347-3 0  9993
2 63160  88.9857 333.9446 0001971 101.1606 258.9766 13.50962154 29086
QIANFAN-75              
1 63161U 25046C   25210.59348320  .00000147  00000+0  20822-3 0  9996
2 63161  88.9858 334.1699 0017275 155.2263 204.9722 13.50958528 28963
QIANFAN-76              
1 63162U 25046D   25210.58918671  .00000174  00000+0  25093-3 0  9993
2 63162  88.9858 334.1515 0014838 154.9452 205.2423 13.50954490 28976
QIANFAN-77              
1 63163U 25046E   25210.57499410  .00000344  00000+0  24138-3 0  9996
2 63163  88.9855 333.2760 0016383 140.4248 219.8128 13.96003038 29456
QIANFAN-78              
1 63164U 25046F   25210.55641320  .00000178  00000+0  25698-3 0  9991
2 63164  88.9857 334.0204 0016138 157.7430 202.4424 13.50957916 29048
QIANFAN-79              
1 63165U 25046G   25210.58513919  .00000159  00000+0  22793-3 0  9999
2 63165  88.9861 334.1196 0015867 155.9823 204.2071 13.50959968 28999
QIANFAN-80              
1 63166U 25046H   25210.60171285  .00000161  00000+0  23054-3 0  9993
2 63166  88.9858 333.8287 0014746 159.5129 200.6616 13.50960336 29152
QIANFAN-81              
1 63167U 25046J   25210.58109888  .00000143  00000+0  20266-3 0  9993
2 63167  88.9858 333.8992 0016039 149.2559 210.9535 13.50959182 29102
QIANFAN-82              
1 63168U 25046K   25210.61387235  .00000157  00000+0  22432-3 0  9994
2 63168  88.9858 333.9393 0013989 155.7033 204.4780 13.50960813 29090
QIANFAN-83              
1 63169U 25046L   25210.48927072  .00000190  00000+0  23106-3 0  9995
2 63169  88.9858 333.9951 0015436 149.6707 210.5347 13.61929605 29059
QIANFAN-84              
1 63170U 25046M   25210.56868522  .00000172  00000+0  24803-3 0  9995
2 63170  88.9858 334.0771 0017031 153.5828 206.6195 13.50962750 29013
QIANFAN-85              
1 63171U 25046N   25210.49054511  .00000145  00000+0  20555-3 0  9993
2 63171  88.9857 333.9573 0014351 155.1993 204.9850 13.50957044 29079
QIANFAN-86              
1 63172U 25046P   25210.57284076  .00000142  00000+0  20055-3 0  9996
2 63172  88.9860 333.8079 0012146 157.7771 202.3909 13.50957306 29164
QIANFAN-87              
1 63173U 25046Q   25210.61798645  .00000158  00000+0  22604-3 0  9993
2 63173  88.9856 333.9200 0012982 153.4238 206.7581 13.50955211 29107
QIANFAN-88              
1 63174U 25046R   25210.48651717  .00000145  00000+0  20555-3 0  9996
2 63174  88.9858 333.8848 0013137 161.3640 198.7995 13.50957498 29114
QIANFAN-89              
1 63175U 25046S   25210.52344843  .00000161  00000+0  23074-3 0  9998
2 63175  88.9858 334.0700 0017689 154.3739 205.8293 13.50962238 29010
QIANFAN-90              
1 63176U 25046T   25210.55223493  .00000179  00000+0  25923-3 0  9993
2 63176  88.9858 334.0391 0014693 151.5798 208.6157 13.50960835 29036
